{
  "norad_id": 49436,
  "name": "STARLINK-3049",
  "history": [
    {
      "epoch": "2026-03-28T12:21:28.068480Z",
      "apogee_km": 540.5608818283563,
      "perigee_km": 538.9043287726709,
      "latitude_deg": -2.595444838358064e-05,
      "longitude_deg": 113.31097624487663,
      "height_km": 540.6263362265792,
      "semi_major_axis_km": 6917.869605300513,
      "eccentricity": 0.00011973,
      "inclination_deg": 53.2166,
      "raan_deg": 124.6122,
      "arg_perigee_deg": 89.8534,
      "mean_anomaly_deg": 270.2595,
      "mean_motion_rev_day": 15.08843528
    }
  ]
}