{"fetched_at":"2026-03-29T16:36:15Z","count":15609,"tles":[{"name":"STARLINK-3049","line1":"1 49436U 21104AE  26087.51490820 -.00001288  00000+0 -62821-4 0  9999","line2":"2 49436  53.2166 124.6122 0001197  89.8534 270.2595 15.08843528241757","category":"Starlink"}]}